[{"OBJECT_NAME":"OBJECT V","OBJECT_ID":"2023-085V","EPOCH":"2026-03-09T21:44:00.165408","MEAN_MOTION":15.30745852,"ECCENTRICITY":0.00069081,"INCLINATION":97.4843,"RA_OF_ASC_NODE":179.3833,"ARG_OF_PERICENTER":71.0503,"MEAN_ANOMALY":289.1485,"EPHEMERIS_TYPE":0,"CLASSIFICATION_TYPE":"U","NORAD_CAT_ID":57023,"ELEMENT_SET_NO":999,"REV_AT_EPOCH":15149,"BSTAR":0.00067780507,"MEAN_MOTION_DOT":0.00020109,"MEAN_MOTION_DDOT":0},{"OBJECT_NAME":"STARLINK-31065","OBJECT_ID":"2023-203K","EPOCH":"2026-03-09T00:47:50.815392","MEAN_MOTION":15.27577916,"ECCENTRICITY":6.838e-5,"INCLINATION":43,"RA_OF_ASC_NODE":70.5804,"ARG_OF_PERICENTER":259.7162,"MEAN_ANOMALY":100.3613,"EPHEMERIS_TYPE":0,"CLASSIFICATION_TYPE":"U","NORAD_CAT_ID":58627,"ELEMENT_SET_NO":999,"REV_AT_EPOCH":12346,"BSTAR":1.3912572e-5,"MEAN_MOTION_DOT":1.21e-6,"MEAN_MOTION_DDOT":0}]
